{
  "type": "FeatureCollection",
  "features": [
    {
      "type": "Feature",
      "properties": {
        "norad_id": 32275,
        "name": "COSMOS 2433 (720)",
        "group": "glo-ops",
        "lat": 29.938537272755354,
        "lon": 126.61160661798033,
        "alt_km": 19130.93393033828,
        "timestamp": "2025-12-27T08:36:18.643027+00:00",
        "meta_object_name": "COSMOS 2433 (720)",
        "meta_object_id": "2007-052A",
        "meta_epoch": "2025-12-26T05:29:12.755904",
        "meta_mean_motion": 2.13104171,
        "meta_eccentricity": 0.0005081,
        "meta_inclination": 65.6759,
        "meta_ra_of_asc_node": 321.753,
        "meta_arg_of_pericenter": 257.4758,
        "meta_mean_anomaly": 102.4712,
        "meta_ephemeris_type": 0,
        "meta_classification_type": "U",
        "meta_norad_cat_id": 32275,
        "meta_element_set_no": 999,
        "meta_rev_at_epoch": 14137,
        "meta_bstar": 0,
        "meta_mean_motion_dot": -3.3e-07,
        "meta_mean_motion_ddot": 0,
        "tle_line1": "1 32275U 07052A   25360.22861986 -.00000033  00000+0  00000+0 0  9996",
        "tle_line2": "2 32275  65.6759 321.7530 0005081 257.4758 102.4712  2.13104171141375"
      },
      "geometry": {
        "type": "Point",
        "coordinates": [
          126.61160661798033,
          29.938537272755354
        ]
      }
    },
    {
      "type": "Feature",
      "properties": {
        "norad_id": 32276,
        "name": "COSMOS 2432 (719)",
        "group": "glo-ops",
        "lat": 65.65660308454271,
        "lon": 55.06477140952364,
        "alt_km": 19143.885570195016,
        "timestamp": "2025-12-27T08:36:18.643051+00:00",
        "meta_object_name": "COSMOS 2432 (719)",
        "meta_object_id": "2007-052B",
        "meta_epoch": "2025-12-26T12:56:48.624288",
        "meta_mean_motion": 2.13103372,
        "meta_eccentricity": 0.0011414,
        "meta_inclination": 65.6918,
        "meta_ra_of_asc_node": 321.8672,
        "meta_arg_of_pericenter": 315.0797,
        "meta_mean_anomaly": 227.7528,
        "meta_ephemeris_type": 0,
        "meta_classification_type": "U",
        "meta_norad_cat_id": 32276,
        "meta_element_set_no": 999,
        "meta_rev_at_epoch": 14140,
        "meta_bstar": 0,
        "meta_mean_motion_dot": -3.4e-07,
        "meta_mean_motion_ddot": 0,
        "tle_line1": "1 32276U 07052B   25360.53945167 -.00000034  00000+0  00000+0 0  9996",
        "tle_line2": "2 32276  65.6918 321.8672 0011414 315.0797 227.7528  2.13103372141404"
      },
      "geometry": {
        "type": "Point",
        "coordinates": [
          55.06477140952364,
          65.65660308454271
        ]
      }
    },
    {
      "type": "Feature",
      "properties": {
        "norad_id": 32393,
        "name": "COSMOS 2434 (721)",
        "group": "glo-ops",
        "lat": 33.08126832745505,
        "lon": -144.01095298671626,
        "alt_km": 19116.07924300773,
        "timestamp": "2025-12-27T08:36:18.643066+00:00",
        "meta_object_name": "COSMOS 2434 (721)",
        "meta_object_id": "2007-065A",
        "meta_epoch": "2025-12-27T02:08:22.083072",
        "meta_mean_motion": 2.13101378,
        "meta_eccentricity": 0.0004806,
        "meta_inclination": 64.316,
        "meta_ra_of_asc_node": 197.7187,
        "meta_arg_of_pericenter": 72.1868,
        "meta_mean_anomaly": 118.5002,
        "meta_ephemeris_type": 0,
        "meta_classification_type": "U",
        "meta_norad_cat_id": 32393,
        "meta_element_set_no": 999,
        "meta_rev_at_epoch": 14010,
        "meta_bstar": 0,
        "meta_mean_motion_dot": 1.2e-06,
        "meta_mean_motion_ddot": 0,
        "tle_line1": "1 32393U 07065A   25361.08914448  .00000120  00000+0  00000+0 0  9994",
        "tle_line2": "2 32393  64.3160 197.7187 0004806  72.1868 118.5002  2.13101378140101"
      },
      "geometry": {
        "type": "Point",
        "coordinates": [
          -144.01095298671626,
          33.08126832745505
        ]
      }
    },
    {
      "type": "Feature",
      "properties": {
        "norad_id": 32395,
        "name": "COSMOS 2436 (723)",
        "group": "glo-ops",
        "lat": 8.59425975391208,
        "lon": 13.612842955342293,
        "alt_km": 19172.161006317077,
        "timestamp": "2025-12-27T08:36:18.643080+00:00",
        "meta_object_name": "COSMOS 2436 (723)",
        "meta_object_id": "2007-065C",
        "meta_epoch": "2025-12-26T09:51:08.082144",
        "meta_mean_motion": 2.13100172,
        "meta_eccentricity": 0.0017813,
        "meta_inclination": 64.3246,
        "meta_ra_of_asc_node": 197.8121,
        "meta_arg_of_pericenter": 10.2944,
        "meta_mean_anomaly": 152.7871,
        "meta_ephemeris_type": 0,
        "meta_classification_type": "U",
        "meta_norad_cat_id": 32395,
        "meta_element_set_no": 999,
        "meta_rev_at_epoch": 14004,
        "meta_bstar": 0,
        "meta_mean_motion_dot": 1.14e-06,
        "meta_mean_motion_ddot": 0,
        "tle_line1": "1 32395U 07065C   25360.41051021  .00000114  00000+0  00000+0 0  9994",
        "tle_line2": "2 32395  64.3246 197.8121 0017813  10.2944 152.7871  2.13100172140045"
      },
      "geometry": {
        "type": "Point",
        "coordinates": [
          13.612842955342293,
          8.59425975391208
        ]
      }
    },
    {
      "type": "Feature",
      "properties": {
        "norad_id": 36111,
        "name": "COSMOS 2456 (730)",
        "group": "glo-ops",
        "lat": -13.108238000575984,
        "lon": -96.89484009811606,
        "alt_km": 19133.68406175403,
        "timestamp": "2025-12-27T08:36:18.643092+00:00",
        "meta_object_name": "COSMOS 2456 (730)",
        "meta_object_id": "2009-070A",
        "meta_epoch": "2025-12-27T04:41:41.219808",
        "meta_mean_motion": 2.13103691,
        "meta_eccentricity": 0.0003703,
        "meta_inclination": 64.9075,
        "meta_ra_of_asc_node": 76.844,
        "meta_arg_of_pericenter": 295.0065,
        "meta_mean_anomaly": 134.5252,
        "meta_ephemeris_type": 0,
        "meta_classification_type": "U",
        "meta_norad_cat_id": 36111,
        "meta_element_set_no": 999,
        "meta_rev_at_epoch": 12476,
        "meta_bstar": 0,
        "meta_mean_motion_dot": -1.5e-07,
        "meta_mean_motion_ddot": 0,
        "tle_line1": "1 36111U 09070A   25361.19561597 -.00000015  00000+0  00000+0 0  9993",
        "tle_line2": "2 36111  64.9075  76.8440 0003703 295.0065 134.5252  2.13103691124762"
      },
      "geometry": {
        "type": "Point",
        "coordinates": [
          -96.89484009811606,
          -13.108238000575984
        ]
      }
    },
    {
      "type": "Feature",
      "properties": {
        "norad_id": 36112,
        "name": "COSMOS 2457 (733)",
        "group": "glo-ops",
        "lat": -32.584332487075855,
        "lon": 59.283257223644284,
        "alt_km": 19144.778415747707,
        "timestamp": "2025-12-27T08:36:18.643104+00:00",
        "meta_object_name": "COSMOS 2457 (733)",
        "meta_object_id": "2009-070B",
        "meta_epoch": "2025-12-26T13:03:04.060800",
        "meta_mean_motion": 2.13101072,
        "meta_eccentricity": 0.0004395,
        "meta_inclination": 64.8927,
        "meta_ra_of_asc_node": 76.7135,
        "meta_arg_of_pericenter": 164.2484,
        "meta_mean_anomaly": 254.2411,
        "meta_ephemeris_type": 0,
        "meta_classification_type": "U",
        "meta_norad_cat_id": 36112,
        "meta_element_set_no": 999,
        "meta_rev_at_epoch": 12475,
        "meta_bstar": 0,
        "meta_mean_motion_dot": -1e-07,
        "meta_mean_motion_ddot": 0,
        "tle_line1": "1 36112U 09070B   25360.54379700 -.00000010  00000+0  00000+0 0  9990",
        "tle_line2": "2 36112  64.8927  76.7135 0004395 164.2484 254.2411  2.13101072124755"
      },
      "geometry": {
        "type": "Point",
        "coordinates": [
          59.283257223644284,
          -32.584332487075855
        ]
      }
    },
    {
      "type": "Feature",
      "properties": {
        "norad_id": 36402,
        "name": "COSMOS 2460 (732)",
        "group": "glo-ops",
        "lat": -32.980152381241595,
        "lon": -56.916300716313536,
        "alt_km": 19128.979841911885,
        "timestamp": "2025-12-27T08:36:18.643115+00:00",
        "meta_object_name": "COSMOS 2460 (732)",
        "meta_object_id": "2010-007C",
        "meta_epoch": "2025-12-27T01:42:51.563232",
        "meta_mean_motion": 2.13106312,
        "meta_eccentricity": 0.0002473,
        "meta_inclination": 65.5217,
        "meta_ra_of_asc_node": 320.2897,
        "meta_arg_of_pericenter": 284.8889,
        "meta_mean_anomaly": 178.0863,
        "meta_ephemeris_type": 0,
        "meta_classification_type": "U",
        "meta_norad_cat_id": 36402,
        "meta_element_set_no": 999,
        "meta_rev_at_epoch": 12306,
        "meta_bstar": 0,
        "meta_mean_motion_dot": -3.6e-07,
        "meta_mean_motion_ddot": 0,
        "tle_line1": "1 36402U 10007C   25361.07143013 -.00000036  00000+0  00000+0 0  9997",
        "tle_line2": "2 36402  65.5217 320.2897 0002473 284.8889 178.0863  2.13106312123061"
      },
      "geometry": {
        "type": "Point",
        "coordinates": [
          -56.916300716313536,
          -32.980152381241595
        ]
      }
    }
  ]
}